[{
	"sorted": "a",
	"nationalCodeList": [{
		"id": 1,
		"nationalCode": "93",
		"region": "阿富汗",
		"regionEn": "Afghanistan",
		"pinyin": "AFuHan",
		"englishFirst": "A",
		"pinyinFirst": "a"
	}, {
		"id": 2,
		"nationalCode": "355",
		"region": "阿尔巴尼亚",
		"regionEn": "Albania",
		"pinyin": "AErBaNiYa",
		"englishFirst": "A",
		"pinyinFirst": "a"
	}, {
		"id": 3,
		"nationalCode": "213",
		"region": "阿尔及利亚",
		"regionEn": "Algeria",
		"pinyin": "AErJiLiYa",
		"englishFirst": "A",
		"pinyinFirst": "a"
	}, {
		"id": 5,
		"nationalCode": "376",
		"region": "安道尔",
		"regionEn": "Andorra",
		"pinyin": "AnDaoEr",
		"englishFirst": "A",
		"pinyinFirst": "a"
	}, {
		"id": 6,
		"nationalCode": "244",
		"region": "安哥拉",
		"regionEn": "Angola",
		"pinyin": "AnGeLa",
		"englishFirst": "A",
		"pinyinFirst": "a"
	}, {
		"id": 7,
		"nationalCode": "1264",
		"region": "安圭拉",
		"regionEn": "Anguilla",
		"pinyin": "AnGuiLa",
		"englishFirst": "A",
		"pinyinFirst": "a"
	}, {
		"id": 8,
		"nationalCode": "1268",
		"region": "安提瓜和巴布达",
		"regionEn": "Antigua and Barbuda",
		"pinyin": "AnTiGuaHeBaBuDa",
		"englishFirst": "A",
		"pinyinFirst": "a"
	}, {
		"id": 9,
		"nationalCode": "54",
		"region": "阿根廷",
		"regionEn": "Argentina",
		"pinyin": "AGenTing",
		"englishFirst": "A",
		"pinyinFirst": "a"
	}, {
		"id": 11,
		"nationalCode": "297",
		"region": "阿鲁巴",
		"regionEn": "Aruba",
		"pinyin": "ALuBa",
		"englishFirst": "A",
		"pinyinFirst": "a"
	}, {
		"id": 12,
		"nationalCode": "61",
		"region": "澳大利亚",
		"regionEn": "Australia",
		"pinyin": "AoDaLiYa",
		"englishFirst": "A",
		"pinyinFirst": "a"
	}, {
		"id": 13,
		"nationalCode": "43",
		"region": "奥地利",
		"regionEn": "Austria",
		"pinyin": "AoDiLi",
		"englishFirst": "A",
		"pinyinFirst": "a"
	}, {
		"id": 14,
		"nationalCode": "994",
		"region": "阿塞拜疆",
		"regionEn": "Azerbaijan",
		"pinyin": "ASaiBaiJiang",
		"englishFirst": "A",
		"pinyinFirst": "a"
	}, {
		"id": 56,
		"nationalCode": "20",
		"region": "埃及",
		"regionEn": "Egypt",
		"pinyin": "AiJi",
		"englishFirst": "E",
		"pinyinFirst": "a"
	}, {
		"id": 60,
		"nationalCode": "372",
		"region": "爱沙尼亚",
		"regionEn": "Estonia",
		"pinyin": "AiShaNiYa",
		"englishFirst": "E",
		"pinyinFirst": "a"
	}, {
		"id": 61,
		"nationalCode": "251",
		"region": "埃塞俄比亚",
		"regionEn": "Ethiopia",
		"pinyin": "AiSaiEBiYa",
		"englishFirst": "E",
		"pinyinFirst": "a"
	}, {
		"id": 92,
		"nationalCode": "353",
		"region": "爱尔兰",
		"regionEn": "Ireland",
		"pinyin": "AiErLan",
		"englishFirst": "I",
		"pinyinFirst": "a"
	}, {
		"id": 143,
		"nationalCode": "968",
		"region": "阿曼",
		"regionEn": "Oman",
		"pinyin": "AMan",
		"englishFirst": "O",
		"pinyinFirst": "a"
	}, {
		"id": 203,
		"nationalCode": "971",
		"region": "阿拉伯联合酋长国",
		"regionEn": "United Arab Emirates",
		"pinyin": "ALaBoLianHeQiuChangGuo",
		"englishFirst": "U",
		"pinyinFirst": "a"
	}]
}, {
	"sorted": "b",
	"nationalCodeList": [{
		"id": 15,
		"nationalCode": "1242",
		"region": "巴哈马",
		"regionEn": "Bahamas",
		"pinyin": "BaHaMa",
		"englishFirst": "B",
		"pinyinFirst": "b"
	}, {
		"id": 16,
		"nationalCode": "973",
		"region": "巴林",
		"regionEn": "Bahrain",
		"pinyin": "BaLin",
		"englishFirst": "B",
		"pinyinFirst": "b"
	}, {
		"id": 18,
		"nationalCode": "1246",
		"region": "巴巴多斯",
		"regionEn": "Barbados",
		"pinyin": "BaBaDuoSi",
		"englishFirst": "B",
		"pinyinFirst": "b"
	}, {
		"id": 19,
		"nationalCode": "375",
		"region": "白俄罗斯",
		"regionEn": "Belarus",
		"pinyin": "BaiELuoSi",
		"englishFirst": "B",
		"pinyinFirst": "b"
	}, {
		"id": 20,
		"nationalCode": "32",
		"region": "比利时",
		"regionEn": "Belgium",
		"pinyin": "BiLiShi",
		"englishFirst": "B",
		"pinyinFirst": "b"
	}, {
		"id": 21,
		"nationalCode": "501",
		"region": "伯利兹",
		"regionEn": "Belize",
		"pinyin": "BoLiZi",
		"englishFirst": "B",
		"pinyinFirst": "b"
	}, {
		"id": 22,
		"nationalCode": "229",
		"region": "贝宁",
		"regionEn": "Benin",
		"pinyin": "BeiNing",
		"englishFirst": "B",
		"pinyinFirst": "b"
	}, {
		"id": 23,
		"nationalCode": "1441",
		"region": "百慕大群岛",
		"regionEn": "Bermuda",
		"pinyin": "BaiMuDaQunDao",
		"englishFirst": "B",
		"pinyinFirst": "b"
	}, {
		"id": 24,
		"nationalCode": "975",
		"region": "不丹",
		"regionEn": "Bhutan",
		"pinyin": "BuDan",
		"englishFirst": "B",
		"pinyinFirst": "b"
	}, {
		"id": 25,
		"nationalCode": "591",
		"region": "玻利维亚",
		"regionEn": "Bolivia",
		"pinyin": "BoLiWeiYa",
		"englishFirst": "B",
		"pinyinFirst": "b"
	}, {
		"id": 26,
		"nationalCode": "387",
		"region": "波斯尼亚和黑塞哥维那",
		"regionEn": "Bosnia and Herzegovina",
		"pinyin": "BoSiNiYaHeHeiSaiGeWeiNa",
		"englishFirst": "B",
		"pinyinFirst": "b"
	}, {
		"id": 27,
		"nationalCode": "267",
		"region": "博茨瓦纳",
		"regionEn": "Botswana",
		"pinyin": "BoCiWaNa",
		"englishFirst": "B",
		"pinyinFirst": "b"
	}, {
		"id": 28,
		"nationalCode": "55",
		"region": "巴西",
		"regionEn": "Brazil",
		"pinyin": "BaXi",
		"englishFirst": "B",
		"pinyinFirst": "b"
	}, {
		"id": 30,
		"nationalCode": "359",
		"region": "保加利亚",
		"regionEn": "Bulgaria",
		"pinyin": "BaoJiaLiYa",
		"englishFirst": "B",
		"pinyinFirst": "b"
	}, {
		"id": 31,
		"nationalCode": "226",
		"region": "布基纳法索",
		"regionEn": "Burkina Faso",
		"pinyin": "BuJiNaFaSuo",
		"englishFirst": "B",
		"pinyinFirst": "b"
	}, {
		"id": 32,
		"nationalCode": "257",
		"region": "布隆迪",
		"regionEn": "Burundi",
		"pinyin": "BuLongDi",
		"englishFirst": "B",
		"pinyinFirst": "b"
	}, {
		"id": 87,
		"nationalCode": "354",
		"region": "冰岛",
		"regionEn": "Iceland",
		"pinyin": "BingDao",
		"englishFirst": "I",
		"pinyinFirst": "b"
	}, {
		"id": 144,
		"nationalCode": "92",
		"region": "巴基斯坦",
		"regionEn": "Pakistan",
		"pinyin": "BaJiSiTan",
		"englishFirst": "P",
		"pinyinFirst": "b"
	}, {
		"id": 146,
		"nationalCode": "970",
		"region": "巴勒斯坦",
		"regionEn": "Palestine",
		"pinyin": "BaLeSiTan",
		"englishFirst": "P",
		"pinyinFirst": "b"
	}, {
		"id": 147,
		"nationalCode": "507",
		"region": "巴拿马",
		"regionEn": "Panama",
		"pinyin": "BaNaMa",
		"englishFirst": "P",
		"pinyinFirst": "b"
	}, {
		"id": 148,
		"nationalCode": "675",
		"region": "巴布亚新几内亚",
		"regionEn": "Papua New Guinea",
		"pinyin": "BaBuYaXinJiNaYa",
		"englishFirst": "P",
		"pinyinFirst": "b"
	}, {
		"id": 149,
		"nationalCode": "595",
		"region": "巴拉圭",
		"regionEn": "Paraguay",
		"pinyin": "BaLaGui",
		"englishFirst": "P",
		"pinyinFirst": "b"
	}, {
		"id": 152,
		"nationalCode": "48",
		"region": "波兰",
		"regionEn": "Poland",
		"pinyin": "BoLan",
		"englishFirst": "P",
		"pinyinFirst": "b"
	}, {
		"id": 154,
		"nationalCode": "1787",
		"region": "波多黎各",
		"regionEn": "Puerto Rico",
		"pinyin": "BoDuoLiGe",
		"englishFirst": "P",
		"pinyinFirst": "b"
	}]
}, {
	"sorted": "c",
	"nationalCodeList": [{
		"id": 58,
		"nationalCode": "240",
		"region": "赤道几内亚",
		"regionEn": "Equatorial Guinea",
		"pinyin": "ChiDaoJiNaYa",
		"englishFirst": "E",
		"pinyinFirst": "c"
	}]
}, {
	"sorted": "d",
	"nationalCodeList": [{
		"id": 51,
		"nationalCode": "45",
		"region": "丹麦",
		"regionEn": "Denmark",
		"pinyin": "DanMai",
		"englishFirst": "D",
		"pinyinFirst": "d"
	}, {
		"id": 53,
		"nationalCode": "1767",
		"region": "多米尼加",
		"regionEn": "Dominica",
		"pinyin": "DuoMiNiJia",
		"englishFirst": "D",
		"pinyinFirst": "d"
	}, {
		"id": 54,
		"nationalCode": "1809",
		"region": "多米尼加共和国",
		"regionEn": "Dominican Republic",
		"pinyin": "DuoMiNiJiaGongHeGuo",
		"englishFirst": "D",
		"pinyinFirst": "d"
	}, {
		"id": 71,
		"nationalCode": "49",
		"region": "德国",
		"regionEn": "Germany",
		"pinyin": "DeGuo",
		"englishFirst": "G",
		"pinyinFirst": "d"
	}, {
		"id": 193,
		"nationalCode": "670",
		"region": "东帝汶",
		"regionEn": "Timor-Leste",
		"pinyin": "DongDiWen",
		"englishFirst": "T",
		"pinyinFirst": "d"
	}, {
		"id": 194,
		"nationalCode": "228",
		"region": "多哥",
		"regionEn": "Togo",
		"pinyin": "DuoGe",
		"englishFirst": "T",
		"pinyinFirst": "d"
	}]
}, {
	"sorted": "e",
	"nationalCodeList": [{
		"id": 55,
		"nationalCode": "593",
		"region": "厄瓜多尔",
		"regionEn": "Ecuador",
		"pinyin": "EGuaDuoEr",
		"englishFirst": "E",
		"pinyinFirst": "e"
	}, {
		"id": 59,
		"nationalCode": "291",
		"region": "厄立特里亚",
		"regionEn": "Eritrea",
		"pinyin": "ELiTeLiYa",
		"englishFirst": "E",
		"pinyinFirst": "e"
	}, {
		"id": 159,
		"nationalCode": "7",
		"region": "俄罗斯",
		"regionEn": "Russia",
		"pinyin": "ELuoSi",
		"englishFirst": "R",
		"pinyinFirst": "e"
	}]
}, {
	"sorted": "f",
	"nationalCodeList": [{
		"id": 62,
		"nationalCode": "298",
		"region": "法罗群岛",
		"regionEn": "Faroe Islands",
		"pinyin": "FaLuoQunDao",
		"englishFirst": "F",
		"pinyinFirst": "f"
	}, {
		"id": 63,
		"nationalCode": "679",
		"region": "斐济",
		"regionEn": "Fiji",
		"pinyin": "FeiJi",
		"englishFirst": "F",
		"pinyinFirst": "f"
	}, {
		"id": 64,
		"nationalCode": "358",
		"region": "芬兰",
		"regionEn": "Finland",
		"pinyin": "FenLan",
		"englishFirst": "F",
		"pinyinFirst": "f"
	}, {
		"id": 65,
		"nationalCode": "33",
		"region": "法国",
		"regionEn": "France",
		"pinyin": "FaGuo",
		"englishFirst": "F",
		"pinyinFirst": "f"
	}, {
		"id": 66,
		"nationalCode": "594",
		"region": "法属圭亚那",
		"regionEn": "French Guiana",
		"pinyin": "FaShuGuiYaNa",
		"englishFirst": "F",
		"pinyinFirst": "f"
	}, {
		"id": 67,
		"nationalCode": "689",
		"region": "法属波利尼西亚",
		"regionEn": "French Polynesia",
		"pinyin": "FaShuBoLiNiXiYa",
		"englishFirst": "F",
		"pinyinFirst": "f"
	}, {
		"id": 151,
		"nationalCode": "63",
		"region": "菲律宾",
		"regionEn": "Philippines",
		"pinyin": "FeiLvBin",
		"englishFirst": "P",
		"pinyinFirst": "f"
	}]
}, {
	"sorted": "g",
	"nationalCodeList": [{
		"id": 41,
		"nationalCode": "57",
		"region": "哥伦比亚",
		"regionEn": "Colombia",
		"pinyin": "GeLunBiYa",
		"englishFirst": "C",
		"pinyinFirst": "g"
	}, {
		"id": 44,
		"nationalCode": "506",
		"region": "哥斯达黎加",
		"regionEn": "Costa Rica",
		"pinyin": "GeSiDaLiJia",
		"englishFirst": "C",
		"pinyinFirst": "g"
	}, {
		"id": 46,
		"nationalCode": "53",
		"region": "古巴",
		"regionEn": "Cuba",
		"pinyin": "GuBa",
		"englishFirst": "C",
		"pinyinFirst": "g"
	}, {
		"id": 50,
		"nationalCode": "243",
		"region": "刚果民主共和国",
		"regionEn": "Democratic Republic of the Congo",
		"pinyin": "GangGuoMinZhuGongHeGuo",
		"englishFirst": "D",
		"pinyinFirst": "g"
	}, {
		"id": 69,
		"nationalCode": "220",
		"region": "冈比亚",
		"regionEn": "Gambia",
		"pinyin": "GangBiYa",
		"englishFirst": "G",
		"pinyinFirst": "g"
	}, {
		"id": 70,
		"nationalCode": "995",
		"region": "格鲁吉亚",
		"regionEn": "Georgia",
		"pinyin": "GeLuJiYa",
		"englishFirst": "G",
		"pinyinFirst": "g"
	}, {
		"id": 75,
		"nationalCode": "299",
		"region": "格陵兰岛",
		"regionEn": "Greenland",
		"pinyin": "GeLingLanDao",
		"englishFirst": "G",
		"pinyinFirst": "g"
	}, {
		"id": 76,
		"nationalCode": "1473",
		"region": "格林纳达",
		"regionEn": "Grenada",
		"pinyin": "GeLinNaDa",
		"englishFirst": "G",
		"pinyinFirst": "g"
	}, {
		"id": 77,
		"nationalCode": "590",
		"region": "瓜德罗普岛",
		"regionEn": "Guadeloupe",
		"pinyin": "GuaDeLuoPuDao",
		"englishFirst": "G",
		"pinyinFirst": "g"
	}, {
		"id": 78,
		"nationalCode": "1671",
		"region": "关岛",
		"regionEn": "Guam",
		"pinyin": "GuanDao",
		"englishFirst": "G",
		"pinyinFirst": "g"
	}, {
		"id": 79,
		"nationalCode": "502",
		"region": "瓜地马拉",
		"regionEn": "Guatemala",
		"pinyin": "GuaDiMaLa",
		"englishFirst": "G",
		"pinyinFirst": "g"
	}, {
		"id": 82,
		"nationalCode": "592",
		"region": "圭亚那",
		"regionEn": "Guyana",
		"pinyin": "GuiYaNa",
		"englishFirst": "G",
		"pinyinFirst": "g"
	}, {
		"id": 156,
		"nationalCode": "242",
		"region": "刚果共和国",
		"regionEn": "Republic Of The Congo",
		"pinyin": "GangGuoGongHeGuo",
		"englishFirst": "R",
		"pinyinFirst": "g"
	}]
}, {
	"sorted": "h",
	"nationalCodeList": [{
		"id": 83,
		"nationalCode": "509",
		"region": "海地",
		"regionEn": "Haiti",
		"pinyin": "HaiDi",
		"englishFirst": "H",
		"pinyinFirst": "h"
	}, {
		"id": 84,
		"nationalCode": "504",
		"region": "洪都拉斯",
		"regionEn": "Honduras",
		"pinyin": "HongDuLaSi",
		"englishFirst": "H",
		"pinyinFirst": "h"
	}, {
		"id": 99,
		"nationalCode": "7",
		"region": "哈萨克斯坦",
		"regionEn": "Kazakhstan",
		"pinyin": "HaSaKeSiTan",
		"englishFirst": "K",
		"pinyinFirst": "h"
	}, {
		"id": 129,
		"nationalCode": "382",
		"region": "黑山",
		"regionEn": "Montenegro",
		"pinyin": "HeiShan",
		"englishFirst": "M",
		"pinyinFirst": "h"
	}, {
		"id": 136,
		"nationalCode": "31",
		"region": "荷兰",
		"regionEn": "Netherlands",
		"pinyin": "HeLan",
		"englishFirst": "N",
		"pinyinFirst": "h"
	}, {
		"id": 180,
		"nationalCode": "82",
		"region": "韩国",
		"regionEn": "South Korea",
		"pinyin": "HanGuo",
		"englishFirst": "S",
		"pinyinFirst": "h"
	}]
}, {
	"sorted": "i",
	"nationalCodeList": []
}, {
	"sorted": "j",
	"nationalCodeList": [{
		"id": 33,
		"nationalCode": "855",
		"region": "柬埔寨",
		"regionEn": "Cambodia",
		"pinyin": "JianPuZhai",
		"englishFirst": "C",
		"pinyinFirst": "j"
	}, {
		"id": 35,
		"nationalCode": "1",
		"region": "加拿大",
		"regionEn": "Canada",
		"pinyin": "JiaNaDa",
		"englishFirst": "C",
		"pinyinFirst": "j"
	}, {
		"id": 49,
		"nationalCode": "420",
		"region": "捷克",
		"regionEn": "Czech",
		"pinyin": "JieKe",
		"englishFirst": "C",
		"pinyinFirst": "j"
	}, {
		"id": 52,
		"nationalCode": "253",
		"region": "吉布提",
		"regionEn": "Djibouti",
		"pinyin": "JiBuTi",
		"englishFirst": "D",
		"pinyinFirst": "j"
	}, {
		"id": 68,
		"nationalCode": "241",
		"region": "加蓬",
		"regionEn": "Gabon",
		"pinyin": "JiaPeng",
		"englishFirst": "G",
		"pinyinFirst": "j"
	}, {
		"id": 72,
		"nationalCode": "233",
		"region": "加纳",
		"regionEn": "Ghana",
		"pinyin": "JiaNa",
		"englishFirst": "G",
		"pinyinFirst": "j"
	}, {
		"id": 80,
		"nationalCode": "224",
		"region": "几内亚",
		"regionEn": "Guinea",
		"pinyin": "JiNaYa",
		"englishFirst": "G",
		"pinyinFirst": "j"
	}, {
		"id": 81,
		"nationalCode": "245",
		"region": "几内亚比绍共和国",
		"regionEn": "Guinea-Bissau",
		"pinyin": "JiNaYaBiShaoGongHeGuo",
		"englishFirst": "G",
		"pinyinFirst": "j"
	}, {
		"id": 101,
		"nationalCode": "686",
		"region": "基里巴斯",
		"regionEn": "Kiribati",
		"pinyin": "JiLiBaSi",
		"englishFirst": "K",
		"pinyinFirst": "j"
	}, {
		"id": 103,
		"nationalCode": "996",
		"region": "吉尔吉斯斯坦",
		"regionEn": "Kyrgyzstan",
		"pinyin": "JiErJiSiSiTan",
		"englishFirst": "K",
		"pinyinFirst": "j"
	}, {
		"id": 215,
		"nationalCode": "263",
		"region": "津巴布韦",
		"regionEn": "Zimbabwe",
		"pinyin": "JinBaBuWei",
		"englishFirst": "Z",
		"pinyinFirst": "j"
	}]
}, {
	"sorted": "k",
	"nationalCodeList": [{
		"id": 34,
		"nationalCode": "237",
		"region": "喀麦隆",
		"regionEn": "Cameroon",
		"pinyin": "KaMaiLong",
		"englishFirst": "C",
		"pinyinFirst": "k"
	}, {
		"id": 36,
		"nationalCode": "238",
		"region": "开普",
		"regionEn": "Cape Verde",
		"pinyin": "KaiPu",
		"englishFirst": "C",
		"pinyinFirst": "k"
	}, {
		"id": 37,
		"nationalCode": "1345",
		"region": "开曼群岛",
		"regionEn": "Cayman Islands",
		"pinyin": "KaiManQunDao",
		"englishFirst": "C",
		"pinyinFirst": "k"
	}, {
		"id": 42,
		"nationalCode": "269",
		"region": "科摩罗",
		"regionEn": "Comoros",
		"pinyin": "KeMoLuo",
		"englishFirst": "C",
		"pinyinFirst": "k"
	}, {
		"id": 43,
		"nationalCode": "682",
		"region": "库克群岛",
		"regionEn": "Cook Islands",
		"pinyin": "KuKeQunDao",
		"englishFirst": "C",
		"pinyinFirst": "k"
	}, {
		"id": 45,
		"nationalCode": "385",
		"region": "克罗地亚",
		"regionEn": "Croatia",
		"pinyin": "KeLuoDiYa",
		"englishFirst": "C",
		"pinyinFirst": "k"
	}, {
		"id": 47,
		"nationalCode": "599",
		"region": "库拉索",
		"regionEn": "Curacao",
		"pinyin": "KuLaSuo",
		"englishFirst": "C",
		"pinyinFirst": "k"
	}, {
		"id": 100,
		"nationalCode": "254",
		"region": "肯尼亚",
		"regionEn": "Kenya",
		"pinyin": "KenNiYa",
		"englishFirst": "K",
		"pinyinFirst": "k"
	}, {
		"id": 102,
		"nationalCode": "965",
		"region": "科威特",
		"regionEn": "Kuwait",
		"pinyin": "KeWeiTe",
		"englishFirst": "K",
		"pinyinFirst": "k"
	}, {
		"id": 155,
		"nationalCode": "974",
		"region": "卡塔尔",
		"regionEn": "Qatar",
		"pinyin": "KaTaEr",
		"englishFirst": "Q",
		"pinyinFirst": "k"
	}]
}, {
	"sorted": "l",
	"nationalCodeList": [{
		"id": 104,
		"nationalCode": "856",
		"region": "老挝",
		"regionEn": "Laos",
		"pinyin": "LaoWo",
		"englishFirst": "L",
		"pinyinFirst": "l"
	}, {
		"id": 105,
		"nationalCode": "371",
		"region": "拉脱维亚",
		"regionEn": "Latvia",
		"pinyin": "LaTuoWeiYa",
		"englishFirst": "L",
		"pinyinFirst": "l"
	}, {
		"id": 106,
		"nationalCode": "961",
		"region": "黎巴嫩",
		"regionEn": "Lebanon",
		"pinyin": "LiBaNen",
		"englishFirst": "L",
		"pinyinFirst": "l"
	}, {
		"id": 107,
		"nationalCode": "266",
		"region": "莱索托",
		"regionEn": "Lesotho",
		"pinyin": "LaiSuoTuo",
		"englishFirst": "L",
		"pinyinFirst": "l"
	}, {
		"id": 108,
		"nationalCode": "231",
		"region": "利比里亚",
		"regionEn": "Liberia",
		"pinyin": "LiBiLiYa",
		"englishFirst": "L",
		"pinyinFirst": "l"
	}, {
		"id": 109,
		"nationalCode": "218",
		"region": "利比亚",
		"regionEn": "Libya",
		"pinyin": "LiBiYa",
		"englishFirst": "L",
		"pinyinFirst": "l"
	}, {
		"id": 110,
		"nationalCode": "423",
		"region": "列支敦士登",
		"regionEn": "Liechtenstein",
		"pinyin": "LieZhiDunShiDeng",
		"englishFirst": "L",
		"pinyinFirst": "l"
	}, {
		"id": 111,
		"nationalCode": "370",
		"region": "立陶宛",
		"regionEn": "Lithuania",
		"pinyin": "LiTaoWan",
		"englishFirst": "L",
		"pinyinFirst": "l"
	}, {
		"id": 112,
		"nationalCode": "352",
		"region": "卢森堡",
		"regionEn": "Luxembourg",
		"pinyin": "LuSenBao",
		"englishFirst": "L",
		"pinyinFirst": "l"
	}, {
		"id": 157,
		"nationalCode": "262",
		"region": "留尼汪",
		"regionEn": "Réunion Island",
		"pinyin": "LiuNiWang",
		"englishFirst": "R",
		"pinyinFirst": "l"
	}, {
		"id": 158,
		"nationalCode": "40",
		"region": "罗马尼亚",
		"regionEn": "Romania",
		"pinyin": "LuoMaNiYa",
		"englishFirst": "R",
		"pinyinFirst": "l"
	}, {
		"id": 160,
		"nationalCode": "250",
		"region": "卢旺达",
		"regionEn": "Rwanda",
		"pinyin": "LuWangDa",
		"englishFirst": "R",
		"pinyinFirst": "l"
	}]
}, {
	"sorted": "m",
	"nationalCodeList": [{
		"id": 4,
		"nationalCode": "1684",
		"region": "美属萨摩亚",
		"regionEn": "American Samoa",
		"pinyin": "MeiShuSaMoYa",
		"englishFirst": "A",
		"pinyinFirst": "m"
	}, {
		"id": 17,
		"nationalCode": "880",
		"region": "孟加拉国",
		"regionEn": "Bangladesh",
		"pinyin": "MengJiaLaGuo",
		"englishFirst": "B",
		"pinyinFirst": "m"
	}, {
		"id": 114,
		"nationalCode": "389",
		"region": "马其顿",
		"regionEn": "Macedonia",
		"pinyin": "MaQiDun",
		"englishFirst": "M",
		"pinyinFirst": "m"
	}, {
		"id": 115,
		"nationalCode": "261",
		"region": "马达加斯加",
		"regionEn": "Madagascar",
		"pinyin": "MaDaJiaSiJia",
		"englishFirst": "M",
		"pinyinFirst": "m"
	}, {
		"id": 116,
		"nationalCode": "265",
		"region": "马拉维",
		"regionEn": "Malawi",
		"pinyin": "MaLaWei",
		"englishFirst": "M",
		"pinyinFirst": "m"
	}, {
		"id": 117,
		"nationalCode": "60",
		"region": "马来西亚",
		"regionEn": "Malaysia",
		"pinyin": "MaLaiXiYa",
		"englishFirst": "M",
		"pinyinFirst": "m"
	}, {
		"id": 118,
		"nationalCode": "960",
		"region": "马尔代夫",
		"regionEn": "Maldives",
		"pinyin": "MaErDaiFu",
		"englishFirst": "M",
		"pinyinFirst": "m"
	}, {
		"id": 119,
		"nationalCode": "223",
		"region": "马里",
		"regionEn": "Mali",
		"pinyin": "MaLi",
		"englishFirst": "M",
		"pinyinFirst": "m"
	}, {
		"id": 120,
		"nationalCode": "356",
		"region": "马耳他",
		"regionEn": "Malta",
		"pinyin": "MaErTa",
		"englishFirst": "M",
		"pinyinFirst": "m"
	}, {
		"id": 121,
		"nationalCode": "596",
		"region": "马提尼克",
		"regionEn": "Martinique",
		"pinyin": "MaTiNiKe",
		"englishFirst": "M",
		"pinyinFirst": "m"
	}, {
		"id": 122,
		"nationalCode": "222",
		"region": "毛里塔尼亚",
		"regionEn": "Mauritania",
		"pinyin": "MaoLiTaNiYa",
		"englishFirst": "M",
		"pinyinFirst": "m"
	}, {
		"id": 123,
		"nationalCode": "230",
		"region": "毛里求斯",
		"regionEn": "Mauritius",
		"pinyin": "MaoLiQiuSi",
		"englishFirst": "M",
		"pinyinFirst": "m"
	}, {
		"id": 124,
		"nationalCode": "269",
		"region": "马约特",
		"regionEn": "Mayotte",
		"pinyin": "MaYueTe",
		"englishFirst": "M",
		"pinyinFirst": "m"
	}, {
		"id": 125,
		"nationalCode": "52",
		"region": "墨西哥",
		"regionEn": "Mexico",
		"pinyin": "MoXiGe",
		"englishFirst": "M",
		"pinyinFirst": "m"
	}, {
		"id": 126,
		"nationalCode": "373",
		"region": "摩尔多瓦",
		"regionEn": "Moldova",
		"pinyin": "MoErDuoWa",
		"englishFirst": "M",
		"pinyinFirst": "m"
	}, {
		"id": 127,
		"nationalCode": "377",
		"region": "摩纳哥",
		"regionEn": "Monaco",
		"pinyin": "MoNaGe",
		"englishFirst": "M",
		"pinyinFirst": "m"
	}, {
		"id": 128,
		"nationalCode": "976",
		"region": "蒙古",
		"regionEn": "Mongolia",
		"pinyin": "MengGu",
		"englishFirst": "M",
		"pinyinFirst": "m"
	}, {
		"id": 130,
		"nationalCode": "1664",
		"region": "蒙特塞拉特岛",
		"regionEn": "Montserrat",
		"pinyin": "MengTeSaiLaTeDao",
		"englishFirst": "M",
		"pinyinFirst": "m"
	}, {
		"id": 131,
		"nationalCode": "212",
		"region": "摩洛哥",
		"regionEn": "Morocco",
		"pinyin": "MoLuoGe",
		"englishFirst": "M",
		"pinyinFirst": "m"
	}, {
		"id": 132,
		"nationalCode": "258",
		"region": "莫桑比克",
		"regionEn": "Mozambique",
		"pinyin": "MoSangBiKe",
		"englishFirst": "M",
		"pinyinFirst": "m"
	}, {
		"id": 133,
		"nationalCode": "95",
		"region": "缅甸",
		"regionEn": "Myanmar",
		"pinyin": "MianDian",
		"englishFirst": "M",
		"pinyinFirst": "m"
	}, {
		"id": 150,
		"nationalCode": "51",
		"region": "秘鲁",
		"regionEn": "Peru",
		"pinyin": "MiLu",
		"englishFirst": "P",
		"pinyinFirst": "m"
	}, {
		"id": 205,
		"nationalCode": "1",
		"region": "美国",
		"regionEn": "United States",
		"pinyin": "MeiGuo",
		"englishFirst": "U",
		"pinyinFirst": "m"
	}, {
		"id": 212,
		"nationalCode": "1284",
		"region": "美属维尔京群岛",
		"regionEn": "Virgin Islands, US",
		"pinyin": "MeiShuWeiErJingQunDao",
		"englishFirst": "V",
		"pinyinFirst": "m"
	}]
}, {
	"sorted": "n",
	"nationalCodeList": [{
		"id": 134,
		"nationalCode": "264",
		"region": "纳米比亚",
		"regionEn": "Namibia",
		"pinyin": "NaMiBiYa",
		"englishFirst": "N",
		"pinyinFirst": "n"
	}, {
		"id": 135,
		"nationalCode": "977",
		"region": "尼泊尔",
		"regionEn": "Nepal",
		"pinyin": "NiBoEr",
		"englishFirst": "N",
		"pinyinFirst": "n"
	}, {
		"id": 139,
		"nationalCode": "505",
		"region": "尼加拉瓜",
		"regionEn": "Nicaragua",
		"pinyin": "NiJiaLaGua",
		"englishFirst": "N",
		"pinyinFirst": "n"
	}, {
		"id": 140,
		"nationalCode": "227",
		"region": "尼日尔",
		"regionEn": "Niger",
		"pinyin": "NiRiEr",
		"englishFirst": "N",
		"pinyinFirst": "n"
	}, {
		"id": 141,
		"nationalCode": "234",
		"region": "尼日利亚",
		"regionEn": "Nigeria",
		"pinyin": "NiRiLiYa",
		"englishFirst": "N",
		"pinyinFirst": "n"
	}, {
		"id": 142,
		"nationalCode": "47",
		"region": "挪威",
		"regionEn": "Norway",
		"pinyin": "NuoWei",
		"englishFirst": "N",
		"pinyinFirst": "n"
	}, {
		"id": 179,
		"nationalCode": "27",
		"region": "南非",
		"regionEn": "South Africa",
		"pinyin": "NanFei",
		"englishFirst": "S",
		"pinyinFirst": "n"
	}]
}, {
	"sorted": "o",
	"nationalCodeList": []
}, {
	"sorted": "p",
	"nationalCodeList": [{
		"id": 145,
		"nationalCode": "680",
		"region": "帕劳",
		"regionEn": "Palau",
		"pinyin": "PaLao",
		"englishFirst": "P",
		"pinyinFirst": "p"
	}, {
		"id": 153,
		"nationalCode": "351",
		"region": "葡萄牙",
		"regionEn": "Portugal",
		"pinyin": "PuTaoYa",
		"englishFirst": "P",
		"pinyinFirst": "p"
	}]
}, {
	"sorted": "q",
	"nationalCodeList": []
}, {
	"sorted": "r",
	"nationalCodeList": [{
		"id": 97,
		"nationalCode": "81",
		"region": "日本",
		"regionEn": "Japan",
		"pinyin": "RiBen",
		"englishFirst": "J",
		"pinyinFirst": "r"
	}, {
		"id": 186,
		"nationalCode": "46",
		"region": "瑞典",
		"regionEn": "Sweden",
		"pinyin": "RuiDian",
		"englishFirst": "S",
		"pinyinFirst": "r"
	}, {
		"id": 187,
		"nationalCode": "41",
		"region": "瑞士",
		"regionEn": "Switzerland",
		"pinyin": "RuiShi",
		"englishFirst": "S",
		"pinyinFirst": "r"
	}]
}, {
	"sorted": "s",
	"nationalCodeList": [{
		"id": 48,
		"nationalCode": "357",
		"region": "塞浦路斯",
		"regionEn": "Cyprus",
		"pinyin": "SaiPuLuSi",
		"englishFirst": "C",
		"pinyinFirst": "s"
	}, {
		"id": 57,
		"nationalCode": "503",
		"region": "萨尔瓦多",
		"regionEn": "El Salvador",
		"pinyin": "SaErWaDuo",
		"englishFirst": "E",
		"pinyinFirst": "s"
	}, {
		"id": 161,
		"nationalCode": "1869",
		"region": "圣基茨和尼维斯",
		"regionEn": "Saint Kitts and Nevis",
		"pinyin": "ShengJiCiHeNiWeiSi",
		"englishFirst": "S",
		"pinyinFirst": "s"
	}, {
		"id": 162,
		"nationalCode": "1758",
		"region": "圣露西亚",
		"regionEn": "Saint Lucia",
		"pinyin": "ShengLuXiYa",
		"englishFirst": "S",
		"pinyinFirst": "s"
	}, {
		"id": 163,
		"nationalCode": "508",
		"region": "圣彼埃尔和密克隆岛",
		"regionEn": "Saint Pierre and Miquelon",
		"pinyin": "ShengBiAiErHeMiKeLongDao",
		"englishFirst": "S",
		"pinyinFirst": "s"
	}, {
		"id": 164,
		"nationalCode": "1784",
		"region": "圣文森特和格林纳丁斯",
		"regionEn": "Saint Vincent and The Grenadines",
		"pinyin": "ShengWenSenTeHeGeLinNaDingSi",
		"englishFirst": "S",
		"pinyinFirst": "s"
	}, {
		"id": 165,
		"nationalCode": "685",
		"region": "萨摩亚",
		"regionEn": "Samoa",
		"pinyin": "SaMoYa",
		"englishFirst": "S",
		"pinyinFirst": "s"
	}, {
		"id": 166,
		"nationalCode": "378",
		"region": "圣马力诺",
		"regionEn": "San Marino",
		"pinyin": "ShengMaLiNuo",
		"englishFirst": "S",
		"pinyinFirst": "s"
	}, {
		"id": 167,
		"nationalCode": "239",
		"region": "圣多美和普林西比",
		"regionEn": "Sao Tome and Principe",
		"pinyin": "ShengDuoMeiHePuLinXiBi",
		"englishFirst": "S",
		"pinyinFirst": "s"
	}, {
		"id": 168,
		"nationalCode": "966",
		"region": "沙特阿拉伯",
		"regionEn": "Saudi Arabia",
		"pinyin": "ShaTeALaBo",
		"englishFirst": "S",
		"pinyinFirst": "s"
	}, {
		"id": 169,
		"nationalCode": "221",
		"region": "塞内加尔",
		"regionEn": "Senegal",
		"pinyin": "SaiNaJiaEr",
		"englishFirst": "S",
		"pinyinFirst": "s"
	}, {
		"id": 170,
		"nationalCode": "381",
		"region": "塞尔维亚",
		"regionEn": "Serbia",
		"pinyin": "SaiErWeiYa",
		"englishFirst": "S",
		"pinyinFirst": "s"
	}, {
		"id": 171,
		"nationalCode": "248",
		"region": "塞舌尔",
		"regionEn": "Seychelles",
		"pinyin": "SaiSheEr",
		"englishFirst": "S",
		"pinyinFirst": "s"
	}, {
		"id": 172,
		"nationalCode": "232",
		"region": "塞拉利昂",
		"regionEn": "Sierra Leone",
		"pinyin": "SaiLaLiAng",
		"englishFirst": "S",
		"pinyinFirst": "s"
	}, {
		"id": 174,
		"nationalCode": "1721",
		"region": "圣马丁岛（荷兰部分）",
		"regionEn": "Saint Maarten (Dutch Part)",
		"pinyin": "ShengMaDingDao（HeLanBuFen）",
		"englishFirst": "S",
		"pinyinFirst": "s"
	}, {
		"id": 175,
		"nationalCode": "421",
		"region": "斯洛伐克",
		"regionEn": "Slovakia",
		"pinyin": "SiLuoFaKe",
		"englishFirst": "S",
		"pinyinFirst": "s"
	}, {
		"id": 176,
		"nationalCode": "386",
		"region": "斯洛文尼亚",
		"regionEn": "Slovenia",
		"pinyin": "SiLuoWenNiYa",
		"englishFirst": "S",
		"pinyinFirst": "s"
	}, {
		"id": 177,
		"nationalCode": "677",
		"region": "所罗门群岛",
		"regionEn": "Solomon Islands",
		"pinyin": "SuoLuoMenQunDao",
		"englishFirst": "S",
		"pinyinFirst": "s"
	}, {
		"id": 178,
		"nationalCode": "252",
		"region": "索马里",
		"regionEn": "Somalia",
		"pinyin": "SuoMaLi",
		"englishFirst": "S",
		"pinyinFirst": "s"
	}, {
		"id": 182,
		"nationalCode": "94",
		"region": "斯里兰卡",
		"regionEn": "Sri Lanka",
		"pinyin": "SiLiLanKa",
		"englishFirst": "S",
		"pinyinFirst": "s"
	}, {
		"id": 183,
		"nationalCode": "249",
		"region": "苏丹",
		"regionEn": "Sudan",
		"pinyin": "SuDan",
		"englishFirst": "S",
		"pinyinFirst": "s"
	}, {
		"id": 184,
		"nationalCode": "597",
		"region": "苏里南",
		"regionEn": "Suriname",
		"pinyin": "SuLiNan",
		"englishFirst": "S",
		"pinyinFirst": "s"
	}, {
		"id": 185,
		"nationalCode": "268",
		"region": "斯威士兰",
		"regionEn": "Swaziland",
		"pinyin": "SiWeiShiLan",
		"englishFirst": "S",
		"pinyinFirst": "s"
	}]
}, {
	"sorted": "t",
	"nationalCodeList": [{
		"id": 190,
		"nationalCode": "992",
		"region": "塔吉克斯坦",
		"regionEn": "Tajikistan",
		"pinyin": "TaJiKeSiTan",
		"englishFirst": "T",
		"pinyinFirst": "t"
	}, {
		"id": 191,
		"nationalCode": "255",
		"region": "坦桑尼亚",
		"regionEn": "Tanzania",
		"pinyin": "TanSangNiYa",
		"englishFirst": "T",
		"pinyinFirst": "t"
	}, {
		"id": 192,
		"nationalCode": "66",
		"region": "泰国",
		"regionEn": "Thailand",
		"pinyin": "TaiGuo",
		"englishFirst": "T",
		"pinyinFirst": "t"
	}, {
		"id": 195,
		"nationalCode": "676",
		"region": "汤加",
		"regionEn": "Tonga",
		"pinyin": "TangJia",
		"englishFirst": "T",
		"pinyinFirst": "t"
	}, {
		"id": 196,
		"nationalCode": "1868",
		"region": "特立尼达和多巴哥",
		"regionEn": "Trinidad and Tobago",
		"pinyin": "TeLiNiDaHeDuoBaGe",
		"englishFirst": "T",
		"pinyinFirst": "t"
	}, {
		"id": 197,
		"nationalCode": "216",
		"region": "突尼斯",
		"regionEn": "Tunisia",
		"pinyin": "TuNiSi",
		"englishFirst": "T",
		"pinyinFirst": "t"
	}, {
		"id": 198,
		"nationalCode": "90",
		"region": "土耳其",
		"regionEn": "Turkey",
		"pinyin": "TuErQi",
		"englishFirst": "T",
		"pinyinFirst": "t"
	}, {
		"id": 199,
		"nationalCode": "993",
		"region": "土库曼斯坦",
		"regionEn": "Turkmenistan",
		"pinyin": "TuKuManSiTan",
		"englishFirst": "T",
		"pinyinFirst": "t"
	}, {
		"id": 200,
		"nationalCode": "1649",
		"region": "特克斯和凯科斯群岛",
		"regionEn": "Turks and Caicos Islands",
		"pinyin": "TeKeSiHeKaiKeSiQunDao",
		"englishFirst": "T",
		"pinyinFirst": "t"
	}]
}, {
	"sorted": "u",
	"nationalCodeList": []
}, {
	"sorted": "v",
	"nationalCodeList": []
}, {
	"sorted": "w",
	"nationalCodeList": [{
		"id": 29,
		"nationalCode": "673",
		"region": "文莱",
		"regionEn": "Brunei",
		"pinyin": "WenLai",
		"englishFirst": "B",
		"pinyinFirst": "w"
	}, {
		"id": 201,
		"nationalCode": "256",
		"region": "乌干达",
		"regionEn": "Uganda",
		"pinyin": "WuGanDa",
		"englishFirst": "U",
		"pinyinFirst": "w"
	}, {
		"id": 202,
		"nationalCode": "380",
		"region": "乌克兰",
		"regionEn": "Ukraine",
		"pinyin": "WuKeLan",
		"englishFirst": "U",
		"pinyinFirst": "w"
	}, {
		"id": 206,
		"nationalCode": "598",
		"region": "乌拉圭",
		"regionEn": "Uruguay",
		"pinyin": "WuLaGui",
		"englishFirst": "U",
		"pinyinFirst": "w"
	}, {
		"id": 207,
		"nationalCode": "998",
		"region": "乌兹别克斯坦",
		"regionEn": "Uzbekistan",
		"pinyin": "WuZiBieKeSiTan",
		"englishFirst": "U",
		"pinyinFirst": "w"
	}, {
		"id": 208,
		"nationalCode": "678",
		"region": "瓦努阿图",
		"regionEn": "Vanuatu",
		"pinyin": "WaNuATu",
		"englishFirst": "V",
		"pinyinFirst": "w"
	}, {
		"id": 209,
		"nationalCode": "58",
		"region": "委内瑞拉",
		"regionEn": "Venezuela",
		"pinyin": "WeiNaRuiLa",
		"englishFirst": "V",
		"pinyinFirst": "w"
	}]
}, {
	"sorted": "x",
	"nationalCodeList": [{
		"id": 74,
		"nationalCode": "30",
		"region": "希腊",
		"regionEn": "Greece",
		"pinyin": "XiLa",
		"englishFirst": "G",
		"pinyinFirst": "x"
	}, {
		"id": 86,
		"nationalCode": "36",
		"region": "匈牙利",
		"regionEn": "Hungary",
		"pinyin": "XiongYaLi",
		"englishFirst": "H",
		"pinyinFirst": "x"
	}, {
		"id": 95,
		"nationalCode": "225",
		"region": "象牙海岸",
		"regionEn": "Ivory Coast",
		"pinyin": "XiangYaHaiAn",
		"englishFirst": "I",
		"pinyinFirst": "x"
	}, {
		"id": 137,
		"nationalCode": "687",
		"region": "新喀里多尼亚",
		"regionEn": "New Caledonia",
		"pinyin": "XinKaLiDuoNiYa",
		"englishFirst": "N",
		"pinyinFirst": "x"
	}, {
		"id": 138,
		"nationalCode": "64",
		"region": "新西兰",
		"regionEn": "New Zealand",
		"pinyin": "XinXiLan",
		"englishFirst": "N",
		"pinyinFirst": "x"
	}, {
		"id": 173,
		"nationalCode": "65",
		"region": "新加坡",
		"regionEn": "Singapore",
		"pinyin": "XinJiaPo",
		"englishFirst": "S",
		"pinyinFirst": "x"
	}, {
		"id": 181,
		"nationalCode": "34",
		"region": "西班牙",
		"regionEn": "Spain",
		"pinyin": "XiBanYa",
		"englishFirst": "S",
		"pinyinFirst": "x"
	}, {
		"id": 188,
		"nationalCode": "963",
		"region": "叙利亚",
		"regionEn": "Syria",
		"pinyin": "XuLiYa",
		"englishFirst": "S",
		"pinyinFirst": "x"
	}]
}, {
	"sorted": "y",
	"nationalCodeList": [{
		"id": 10,
		"nationalCode": "374",
		"region": "亚美尼亚",
		"regionEn": "Armenia",
		"pinyin": "YaMeiNiYa",
		"englishFirst": "A",
		"pinyinFirst": "y"
	}, {
		"id": 88,
		"nationalCode": "91",
		"region": "印度",
		"regionEn": "India",
		"pinyin": "YinDu",
		"englishFirst": "I",
		"pinyinFirst": "y"
	}, {
		"id": 89,
		"nationalCode": "62",
		"region": "印度尼西亚",
		"regionEn": "Indonesia",
		"pinyin": "YinDuNiXiYa",
		"englishFirst": "I",
		"pinyinFirst": "y"
	}, {
		"id": 90,
		"nationalCode": "98",
		"region": "伊朗",
		"regionEn": "Iran",
		"pinyin": "YiLang",
		"englishFirst": "I",
		"pinyinFirst": "y"
	}, {
		"id": 91,
		"nationalCode": "964",
		"region": "伊拉克",
		"regionEn": "Iraq",
		"pinyin": "YiLaKe",
		"englishFirst": "I",
		"pinyinFirst": "y"
	}, {
		"id": 93,
		"nationalCode": "972",
		"region": "以色列",
		"regionEn": "Israel",
		"pinyin": "YiSeLie",
		"englishFirst": "I",
		"pinyinFirst": "y"
	}, {
		"id": 94,
		"nationalCode": "39",
		"region": "意大利",
		"regionEn": "Italy",
		"pinyin": "YiDaLi",
		"englishFirst": "I",
		"pinyinFirst": "y"
	}, {
		"id": 96,
		"nationalCode": "1876",
		"region": "牙买加",
		"regionEn": "Jamaica",
		"pinyin": "YaMaiJia",
		"englishFirst": "J",
		"pinyinFirst": "y"
	}, {
		"id": 98,
		"nationalCode": "962",
		"region": "约旦",
		"regionEn": "Jordan",
		"pinyin": "YueDan",
		"englishFirst": "J",
		"pinyinFirst": "y"
	}, {
		"id": 204,
		"nationalCode": "44",
		"region": "英国",
		"regionEn": "United Kingdom",
		"pinyin": "YingGuo",
		"englishFirst": "U",
		"pinyinFirst": "y"
	}, {
		"id": 210,
		"nationalCode": "84",
		"region": "越南",
		"regionEn": "Vietnam",
		"pinyin": "YueNan",
		"englishFirst": "V",
		"pinyinFirst": "y"
	}, {
		"id": 211,
		"nationalCode": "1340",
		"region": "英属处女群岛",
		"regionEn": "Virgin Islands, British",
		"pinyin": "YingShuChuNvQunDao",
		"englishFirst": "V",
		"pinyinFirst": "y"
	}, {
		"id": 213,
		"nationalCode": "967",
		"region": "也门",
		"regionEn": "Yemen",
		"pinyin": "YeMen",
		"englishFirst": "Y",
		"pinyinFirst": "y"
	}]
}, {
	"sorted": "z",
	"nationalCodeList": [{
		"id": 38,
		"nationalCode": "236",
		"region": "中非共和国",
		"regionEn": "Central African Republic",
		"pinyin": "ZhongFeiGongHeGuo",
		"englishFirst": "C",
		"pinyinFirst": "z"
	}, {
		"id": 39,
		"nationalCode": "235",
		"region": "乍得",
		"regionEn": "Chad",
		"pinyin": "ZhaDe",
		"englishFirst": "C",
		"pinyinFirst": "z"
	}, {
		"id": 40,
		"nationalCode": "56",
		"region": "智利",
		"regionEn": "Chile",
		"pinyin": "ZhiLi",
		"englishFirst": "C",
		"pinyinFirst": "z"
	}, {
		"id": 73,
		"nationalCode": "350",
		"region": "直布罗陀",
		"regionEn": "Gibraltar",
		"pinyin": "ZhiBuLuoTuo",
		"englishFirst": "G",
		"pinyinFirst": "z"
	},
	{
		"id": 0,
		"nationalCode": "86",
		"region": "中国",
		"regionEn": "China",
		"pinyin": "ZhongGuo",
		"englishFirst": "C",
		"pinyinFirst": "z"
	},{
		"id": 85,
		"nationalCode": "852",
		"region": "中国香港",
		"regionEn": "Hong Kong",
		"pinyin": "ZhongGuoXiangGang",
		"englishFirst": "H",
		"pinyinFirst": "z"
	}, {
		"id": 113,
		"nationalCode": "853",
		"region": "中国澳门",
		"regionEn": "Macau",
		"pinyin": "ZhongGuoAoMen",
		"englishFirst": "M",
		"pinyinFirst": "z"
	}, {
		"id": 189,
		"nationalCode": "886",
		"region": "中国台湾",
		"regionEn": "Taiwan",
		"pinyin": "ZhongGuoTaiWan",
		"englishFirst": "T",
		"pinyinFirst": "z"
	}, {
		"id": 214,
		"nationalCode": "260",
		"region": "赞比亚",
		"regionEn": "Zambia",
		"pinyin": "ZanBiYa",
		"englishFirst": "Z",
		"pinyinFirst": "z"
	}]
}]
